[
  {
    "norad_id": "49069",
    "name": "LEDSAT",
    "tle1": "1 49069U 21073D   25117.20629732  .00078260  00000+0  11618-2 0  9999\r",
    "tle2": "2 49069  97.3918 197.1170 0011617 227.8604 132.1663 15.54865055204684",
    "transmitters": [
      {
        "description": "Mode U - Beacon GMSK9k6 AX.100",
        "mode": "MSK AX.100 Mode 5",
        "status": "active",
        "uplink": null,
        "downlink": 435190000
      },
      {
        "description": "Mode U/U - Digipeater GMSK1k2 AX.100",
        "mode": "MSK AX.100 Mode 5",
        "status": "active",
        "uplink": 435310000,
        "downlink": 435190000
      }
    ],
    "image": "satellites/ledsat.png",
    "country": "IT"
  },
  {
    "norad_id": "60209",
    "name": "MESAT-1",
    "tle1": "1 60209U 24125G   25117.16769746  .00026068  00000+0  77866-3 0  9991\r",
    "tle2": "2 60209  97.2845 329.3099 0017767 294.4855  65.4535 15.34424354 45297",
    "transmitters": [
      {
        "description": "GlobalStar EyeStar 2M32G1D",
        "mode": "BPSK",
        "status": "active",
        "uplink": null,
        "downlink": 1616250000
      },
      {
        "description": "UHF TLM 1k2 BPSK",
        "mode": "BPSK",
        "status": "active",
        "uplink": null,
        "downlink": 435800000
      },
      {
        "description": "Mode V/U - BPSK1k2 - Transponder",
        "mode": "BPSK",
        "status": "active",
        "uplink": "145910000-145940000",
        "downlink": "435810000-435840000"
      }
    ],
    "image": "satellites/IMG_0571-317x422.jpg",
    "country": "US"
  },
  {
    "norad_id": "43780",
    "name": "MOVE-2",
    "tle1": "1 43780U 18099Y   25117.19239475  .00179405  00000+0  21599-2 0  9998\r",
    "tle2": "2 43780  97.4690 190.0488 0004023 238.3795 121.7069 15.60208570351004",
    "transmitters": [
      {
        "description": "CW Beacon",
        "mode": "CW",
        "status": "active",
        "uplink": null,
        "downlink": 145950000
      },
      {
        "description": "BPSK Telemetry",
        "mode": "BPSK",
        "status": "active",
        "uplink": null,
        "downlink": 145950000
      },
      {
        "description": "BPSK TLM IQ recording usage",
        "mode": "BPSK",
        "status": "active",
        "uplink": null,
        "downlink": 145950000
      }
    ],
    "image": "",
    "country": "DE"
  },
  {
    "norad_id": "26931",
    "name": "NO-44",
    "tle1": "1 26931U 01043C   25116.77577307  .00000444  00000+0  19744-3 0  9996\r",
    "tle2": "2 26931  67.0509 241.0924 0005645 271.8426  88.2029 14.31708838230830",
    "transmitters": [
      {
        "description": "Mode V/V APRS AFSK",
        "mode": "AFSK",
        "status": "active",
        "uplink": 145825000,
        "downlink": 145825000
      },
      {
        "description": "PE0SAT - 1k2 AFSK APRS",
        "mode": "AFSK",
        "status": "active",
        "uplink": null,
        "downlink": 145826800
      },
      {
        "description": "Mode V - R2 Backup APRS 1K2",
        "mode": "AFSK",
        "status": "active",
        "uplink": null,
        "downlink": 144390000
      }
    ],
    "image": "https://db-satnogs.freetls.fastly.net/media/satellites/no44.gif",
    "country": "US"
  },
  {
    "norad_id": "63211",
    "name": "NUSHSat-1",
    "tle1": "1 63211U 25052B   25116.22854427  .00019855  00000+0  93380-3 0  9999\r",
    "tle2": "2 63211  97.4470  10.9329 0006436 112.4119 247.7798 15.19589950  6516",
    "transmitters": [
      {
        "description": "Mode U - Transmitter",
        "mode": "FSK AX.100 Mode 5",
        "status": "active",
        "uplink": null,
        "downlink": 436200000
      }
    ],
    "image": "",
    "country": "SG"
  },
  {
    "norad_id": "60243",
    "name": "ROBUSTA-3A",
    "tle1": "1 60243U 24128J   25116.70482291  .00012118  00000+0  86695-3 0  9999\r",
    "tle2": "2 60243  61.9895 232.0709 0046355  41.1213 319.3357 15.03947542 43629",
    "transmitters": [
      {
        "description": "Mode U - GMSK9k6 - AX.25",
        "mode": "GMSK",
        "status": "active",
        "uplink": null,
        "downlink": 436750000
      },
      {
        "description": "Mode S - Transmitter",
        "mode": "FM",
        "status": "active",
        "uplink": null,
        "downlink": 2202000000
      }
    ],
    "image": "satellites/ROBUSTA-3A.png",
    "country": "FR"
  },
  {
    "norad_id": "27607",
    "name": "SaudiSat-1C",
    "tle1": "1 27607U 02058C   25116.94789450  .00002684  00000+0  35227-3 0  9999\r",
    "tle2": "2 27607  64.5551 335.2059 0051127 344.3227  15.6292 14.81489950202769",
    "transmitters": [
      {
        "description": "Mode V/U FM Voice CTCSS 67.0 Hz",
        "mode": "FM",
        "status": "active",
        "uplink": 145850000,
        "downlink": 436795000
      },
      {
        "description": "Mode V TLM",
        "mode": "FM",
        "status": "active",
        "uplink": null,
        "downlink": 149025000
      }
    ],
    "image": "https://db-satnogs.freetls.fastly.net/media/satellites/saudisat-so-50.jpg",
    "country": "SA"
  },
  {
    "norad_id": "59112",
    "name": "SONATE-2",
    "tle1": "1 59112U 24043Q   25116.88380153  .00028372  00000+0  85821-3 0  9990\r",
    "tle2": "2 59112  97.5072 247.2522 0010453 266.5364  93.4682 15.34114983 63638",
    "transmitters": [
      {
        "description": "Mode V - CW",
        "mode": "CW",
        "status": "active",
        "uplink": null,
        "downlink": 145840000
      },
      {
        "description": "Mode U - GMSK9k6 - AX.25 G3RUH - Telemetry",
        "mode": "GMSK",
        "status": "active",
        "uplink": null,
        "downlink": 437025000
      },
      {
        "description": "Mode V - SSTV - Martin M1 SSTV",
        "mode": "SSTV",
        "status": "active",
        "uplink": null,
        "downlink": 145880000
      },
      {
        "description": "Mode V/V - APRS digipeater",
        "mode": "AFSK",
        "status": "active",
        "uplink": 145825000,
        "downlink": 145825000
      },
      {
        "description": "Mode S - QPSK 2.048 Msps - CCSDS 131.0-B Convolutional code k=7, r=0.5, randomizer on",
        "mode": "QPSK",
        "status": "active",
        "uplink": null,
        "downlink": 2267700000
      }
    ],
    "image": "satellites/sonate-2.png",
    "country": "DE"
  },
  {
    "norad_id": "43804",
    "name": "Suomi-100",
    "tle1": "1 43804U 18099AY  25116.89366835  .00015681  00000+0  78467-3 0  9994\r",
    "tle2": "2 43804  97.4769 175.8010 0010914 301.9377  58.0794 15.17448931350071",
    "transmitters": [
      {
        "description": "GMSK9k6 TLM",
        "mode": "MSK AX.100 Mode 5",
        "status": "active",
        "uplink": null,
        "downlink": 437775000
      }
    ],
    "image": "satellites/suomi1001.png",
    "country": "FI"
  },
  {
    "norad_id": "43188",
    "name": "S-NetA",
    "tle1": "1 43188U 18014J   25116.67707139  .00009894  00000+0  58993-3 0  9999\r",
    "tle2": "2 43188  97.5681  20.1523 0010453  22.3243 337.8440 15.11321013395749",
    "transmitters": [
      {
        "description": "S-Band Downlink",
        "mode": "FM",
        "status": "active",
        "uplink": null,
        "downlink": 2263000000
      },
      {
        "description": "AFSK 1k2 TLM",
        "mode": "AFSK TUBiX10",
        "status": "active",
        "uplink": null,
        "downlink": 435950000
      }
    ],
    "image": "",
    "country": "DE"
  },
  {
    "norad_id": "49396",
    "name": "TeikyoSat-4",
    "tle1": "1 49396U 21102B   25117.14186045  .00003402  00000+0  22831-3 0  9999\r",
    "tle2": "2 49396  97.4137 157.1333 0010969 284.0622  75.9386 15.07425196190004",
    "transmitters": [
      {
        "description": "Mode U - CW Beacon",
        "mode": "CW",
        "status": "active",
        "uplink": null,
        "downlink": 437450000
      },
      {
        "description": "Mode U - AFSK1k2",
        "mode": "AFSK",
        "status": "active",
        "uplink": null,
        "downlink": 437450000
      },
      {
        "description": "Mode U - GMSK9k6",
        "mode": "GMSK",
        "status": "active",
        "uplink": null,
        "downlink": 437450000
      },
      {
        "description": "Mode U - SSTV",
        "mode": "SSTV",
        "status": "active",
        "uplink": null,
        "downlink": 437450000
      },
      {
        "description": "Mode S - FSK115k2",
        "mode": "FSK",
        "status": "active",
        "uplink": null,
        "downlink": 5831000000
      }
    ],
    "image": "satellites/TS4_patch.jpg",
    "country": "JP"
  },
  {
    "norad_id": "63217",
    "name": "TEVEL2-1",
    "tle1": "1 63217U 25052H   25116.96495778  .00021242  00000+0  10120-2 0  9999\r",
    "tle2": "2 63217  97.4358  11.5748 0005174 130.8858 229.2826 15.19135002  6625",
    "transmitters": [
      {
        "description": "Mode U - BPSK9k6 G3RUH - Beacon",
        "mode": "BPSK",
        "status": "active",
        "uplink": null,
        "downlink": 436400000
      },
      {
        "description": "Mode V/U - FM Transponder",
        "mode": "FM",
        "status": "active",
        "uplink": 145970000,
        "downlink": 436400000
      }
    ],
    "image": "satellites/transit-o__1.jpg",
    "country": "US"
  },
  {
    "norad_id": "63218",
    "name": "TEVEL2-2",
    "tle1": "1 63218U 25052J   25116.96518569  .00020885  00000+0  99524-3 0  9992\r",
    "tle2": "2 63218  97.4360  11.5748 0005192 131.5546 228.6135 15.19128665  6624",
    "transmitters": [],
    "image": "satellites/transit-o__1.jpg",
    "country": "US"
  },
  {
    "norad_id": "63219",
    "name": "TEVEL2-3",
    "tle1": "1 63219U 25052K   25116.96519693  .00021370  00000+0  10183-2 0  9995\r",
    "tle2": "2 63219  97.4360  11.5745 0005199 131.7286 228.4393 15.19127065  6629",
    "transmitters": [],
    "image": "satellites/transit-o__1.jpg",
    "country": "US"
  }
]